Zip,City,State,Region,District,Country
72086 CEDEX 9,Arrondissement du Mans,Pays de la Loire,,Sarthe,France
72087 CEDEX 9,Arrondissement du Mans,Pays de la Loire,,Sarthe,France
72088 CEDEX 9,Arrondissement du Mans,Pays de la Loire,,Sarthe,France
72089 CEDEX 9,Arrondissement du Mans,Pays de la Loire,,Sarthe,France
72091 CEDEX 9,Arrondissement du Mans,Pays de la Loire,,Sarthe,France
72092 CEDEX 9,Arrondissement du Mans,Pays de la Loire,,Sarthe,France
72093 CEDEX 9,Arrondissement du Mans,Pays de la Loire,,Sarthe,France
72095 CEDEX 9,Arrondissement du Mans,Pays de la Loire,,Sarthe,France
72096 CEDEX 9,Arrondissement du Mans,Pays de la Loire,,Sarthe,France
72100,Arrondissement du Mans,Pays de la Loire,,Sarthe,France
72109 CEDEX 2,Arrondissement du Mans,Pays de la Loire,,Sarthe,France
72110,Arrondissement de Mamers,Pays de la Loire,,Sarthe,France
72120,Arrondissement de Mamers,Pays de la Loire,,Sarthe,France
72130,Arrondissement de Mamers,Pays de la Loire,,Sarthe,France
72140,Arrondissement de Mamers,Pays de la Loire,,Sarthe,France
72150,Arrondissement de La Flèche,Pays de la Loire,,Sarthe,France
72160,Arrondissement de Mamers,Pays de la Loire,,Sarthe,France
72170,Arrondissement de Mamers,Pays de la Loire,,Sarthe,France
72190,Arrondissement du Mans,Pays de la Loire,,Sarthe,France
72200,Arrondissement de La Flèche,Pays de la Loire,,Sarthe,France
72201 CEDEX,Arrondissement de La Flèche,Pays de la Loire,,Sarthe,France
72202 CEDEX,Arrondissement de La Flèche,Pays de la Loire,,Sarthe,France
72203 CEDEX,Arrondissement de La Flèche,Pays de la Loire,,Sarthe,France
72205 CEDEX,Arrondissement de La Flèche,Pays de la Loire,,Sarthe,France
72206 CEDEX,Arrondissement de La Flèche,Pays de la Loire,,Sarthe,France
72208 CEDEX,Arrondissement de La Flèche,Pays de la Loire,,Sarthe,France
72210,Arrondissement de La Flèche,Pays de la Loire,,Sarthe,France
72220,Arrondissement du Mans,Pays de la Loire,,Sarthe,France
72230,Arrondissement de La Flèche,Pays de la Loire,,Sarthe,France
72231 CEDEX,Arrondissement du Mans,Pays de la Loire,,Sarthe,France
72232 CEDEX,Arrondissement du Mans,Pays de la Loire,,Sarthe,France
72233 CEDEX,Arrondissement du Mans,Pays de la Loire,,Sarthe,France
72234 CEDEX,Arrondissement du Mans,Pays de la Loire,,Sarthe,France
72236 CEDEX,Arrondissement du Mans,Pays de la Loire,,Sarthe,France
72237 CEDEX,Arrondissement du Mans,Pays de la Loire,,Sarthe,France
72239 CEDEX,Arrondissement du Mans,Pays de la Loire,,Sarthe,France
72240,Arrondissement de Mamers,Pays de la Loire,,Sarthe,France
72250,Arrondissement du Mans,Pays de la Loire,,Sarthe,France
72260,Arrondissement de Mamers,Pays de la Loire,,Sarthe,France
72270,Arrondissement de La Flèche,Pays de la Loire,,Sarthe,France
72290,Arrondissement de Mamers,Pays de la Loire,,Sarthe,France
72300,Arrondissement de La Flèche,Pays de la Loire,,Sarthe,France
72301 CEDEX,Arrondissement de La Flèche,Pays de la Loire,,Sarthe,France
72302 CEDEX,Arrondissement de La Flèche,Pays de la Loire,,Sarthe,France
72303 CEDEX,Arrondissement de La Flèche,Pays de la Loire,,Sarthe,France
72304 CEDEX,Arrondissement de La Flèche,Pays de la Loire,,Sarthe,France
72305 CEDEX,Arrondissement de La Flèche,Pays de la Loire,,Sarthe,France
72308 CEDEX,Arrondissement de La Flèche,Pays de la Loire,,Sarthe,France
72309 CEDEX,Arrondissement de La Flèche,Pays de la Loire,,Sarthe,France
72310,Arrondissement de Mamers,Pays de la Loire,,Sarthe,France
72320,Arrondissement de Mamers,Pays de la Loire,,Sarthe,France
72330,Arrondissement de La Flèche,Pays de la Loire,,Sarthe,France
72340,Arrondissement de La Flèche,Pays de la Loire,,Sarthe,France
72350,Arrondissement de La Flèche,Pays de la Loire,,Sarthe,France
72360,Arrondissement de La Flèche,Pays de la Loire,,Sarthe,France
72370,Arrondissement de Mamers,Pays de la Loire,,Sarthe,France
72380,Arrondissement du Mans,Pays de la Loire,,Sarthe,France
72390,Arrondissement de Mamers,Pays de la Loire,,Sarthe,France
72400,Arrondissement de Mamers,Pays de la Loire,,Sarthe,France
72401 CEDEX,Arrondissement de Mamers,Pays de la Loire,,Sarthe,France
72402 CEDEX,Arrondissement de Mamers,Pays de la Loire,,Sarthe,France
72403 CEDEX,Arrondissement de Mamers,Pays de la Loire,,Sarthe,France
72404 CEDEX,Arrondissement de Mamers,Pays de la Loire,,Sarthe,France
72405 CEDEX,Arrondissement de Mamers,Pays de la Loire,,Sarthe,France
72406 CEDEX,Arrondissement de Mamers,Pays de la Loire,,Sarthe,France
72407 CEDEX,Arrondissement de Mamers,Pays de la Loire,,Sarthe,France
72409 CEDEX,Arrondissement de Mamers,Pays de la Loire,,Sarthe,France
72430,Arrondissement de La Flèche,Pays de la Loire,,Sarthe,France
72440,Arrondissement de Mamers,Pays de la Loire,,Sarthe,France
72450,Arrondissement de Mamers,Pays de la Loire,,Sarthe,France
72460,Arrondissement de Mamers,Pays de la Loire,,Sarthe,France
72470,Arrondissement de Mamers,Pays de la Loire,,Sarthe,France
72500,Arrondissement de La Flèche,Pays de la Loire,,Sarthe,France
72510,Arrondissement de La Flèche,Pays de la Loire,,Sarthe,France
72530,Arrondissement du Mans,Pays de la Loire,,Sarthe,France
72540,Arrondissement de La Flèche,Pays de la Loire,,Sarthe,France
72550,Arrondissement de La Flèche,Pays de la Loire,,Sarthe,France
72560,Arrondissement du Mans,Pays de la Loire,,Sarthe,France
72600,Arrondissement de Mamers,Pays de la Loire,,Sarthe,France
72610,Arrondissement de Mamers,Pays de la Loire,,Sarthe,France
72650,Arrondissement du Mans,Pays de la Loire,,Sarthe,France
72700,Arrondissement du Mans,Pays de la Loire,,Sarthe,France
72702 CEDEX,Arrondissement du Mans,Pays de la Loire,,Sarthe,France
72703 CEDEX,Arrondissement du Mans,Pays de la Loire,,Sarthe,France
72704 CEDEX,Arrondissement du Mans,Pays de la Loire,,Sarthe,France
72705 CEDEX,Arrondissement du Mans,Pays de la Loire,,Sarthe,France
72800,Arrondissement de La Flèche,Pays de la Loire,,Sarthe,France
72902 CEDEX 9,Arrondissement du Mans,Pays de la Loire,,Sarthe,France
72908 CEDEX 9,Arrondissement du Mans,Pays de la Loire,,Sarthe,France
85000,Arrondissement de La Roche-sur-Yon,Pays de la Loire,,Vendée,France
85001 CEDEX,Arrondissement de La Roche-sur-Yon,Pays de la Loire,,Vendée,France
85002 CEDEX,Arrondissement de La Roche-sur-Yon,Pays de la Loire,,Vendée,France
85003 CEDEX,Arrondissement de La Roche-sur-Yon,Pays de la Loire,,Vendée,France
85004 CEDEX,Arrondissement de La Roche-sur-Yon,Pays de la Loire,,Vendée,France
85005 CEDEX,Arrondissement de La Roche-sur-Yon,Pays de la Loire,,Vendée,France
85006 CEDEX,Arrondissement de La Roche-sur-Yon,Pays de la Loire,,Vendée,France
85007 CEDEX,Arrondissement de La Roche-sur-Yon,Pays de la Loire,,Vendée,France
85008 CEDEX,Arrondissement de La Roche-sur-Yon,Pays de la Loire,,Vendée,France
85009 CEDEX,Arrondissement de La Roche-sur-Yon,Pays de la Loire,,Vendée,France
85010 CEDEX,Arrondissement de La Roche-sur-Yon,Pays de la Loire,,Vendée,France
85012 CEDEX,Arrondissement de La Roche-sur-Yon,Pays de la Loire,,Vendée,France
85013 CEDEX,Arrondissement de La Roche-sur-Yon,Pays de la Loire,,Vendée,France
85015 CEDEX,Arrondissement de La Roche-sur-Yon,Pays de la Loire,,Vendée,France
85016 CEDEX,Arrondissement de La Roche-sur-Yon,Pays de la Loire,,Vendée,France
85017 CEDEX,Arrondissement de La Roche-sur-Yon,Pays de la Loire,,Vendée,France
85018 CEDEX,Arrondissement de La Roche-sur-Yon,Pays de la Loire,,Vendée,France
85019 CEDEX,Arrondissement de La Roche-sur-Yon,Pays de la Loire,,Vendée,France
85020 CEDEX,Arrondissement de La Roche-sur-Yon,Pays de la Loire,,Vendée,France
85021 CEDEX,Arrondissement de La Roche-sur-Yon,Pays de la Loire,,Vendée,France
85023 CEDEX,Arrondissement de La Roche-sur-Yon,Pays de la Loire,,Vendée,France
85024 CEDEX,Arrondissement de La Roche-sur-Yon,Pays de la Loire,,Vendée,France
85026 CEDEX,Arrondissement de La Roche-sur-Yon,Pays de la Loire,,Vendée,France
85033 CEDEX,Arrondissement de La Roche-sur-Yon,Pays de la Loire,,Vendée,France
85035 CEDEX,Arrondissement de La Roche-sur-Yon,Pays de la Loire,,Vendée,France
85036 CEDEX,Arrondissement de La Roche-sur-Yon,Pays de la Loire,,Vendée,France
85100,Arrondissement des Sables-d'Olonne,Pays de la Loire,,Vendée,France
85101 CEDEX,Arrondissement des Sables-d'Olonne,Pays de la Loire,,Vendée,France
85102 CEDEX,Arrondissement des Sables-d'Olonne,Pays de la Loire,,Vendée,France
85103 CEDEX,Arrondissement des Sables-d'Olonne,Pays de la Loire,,Vendée,France
85104 CEDEX,Arrondissement des Sables-d'Olonne,Pays de la Loire,,Vendée,France
85105 CEDEX,Arrondissement des Sables-d'Olonne,Pays de la Loire,,Vendée,France
85106 CEDEX,Arrondissement des Sables-d'Olonne,Pays de la Loire,,Vendée,France
85107 CEDEX,Arrondissement des Sables-d'Olonne,Pays de la Loire,,Vendée,France
85108 CEDEX,Arrondissement des Sables-d'Olonne,Pays de la Loire,,Vendée,France
85109 CEDEX,Arrondissement des Sables-d'Olonne,Pays de la Loire,,Vendée,France
85110,Arrondissement de La Roche-sur-Yon,Pays de la Loire,,Vendée,France
85111 CEDEX,Arrondissement de La Roche-sur-Yon,Pays de la Loire,,Vendée,France
85113 CEDEX,Arrondissement de La Roche-sur-Yon,Pays de la Loire,,Vendée,France
85114 CEDEX,Arrondissement de La Roche-sur-Yon,Pays de la Loire,,Vendée,France
85118 CEDEX,Arrondissement des Sables-d'Olonne,Pays de la Loire,,Vendée,France
85119 CEDEX,Arrondissement des Sables-d'Olonne,Pays de la Loire,,Vendée,France
85120,Arrondissement de Fontenay-le-Comte,Pays de la Loire,,Vendée,France
85130,Arrondissement de La Roche-sur-Yon,Pays de la Loire,,Vendée,France
85131 CEDEX,Arrondissement de La Roche-sur-Yon,Pays de la Loire,,Vendée,France
85132 CEDEX,Arrondissement de La Roche-sur-Yon,Pays de la Loire,,Vendée,France
85133 CEDEX,Arrondissement de La Roche-sur-Yon,Pays de la Loire,,Vendée,France
85139 CEDEX,Arrondissement de La Roche-sur-Yon,Pays de la Loire,,Vendée,France
85140,Arrondissement de La Roche-sur-Yon,Pays de la Loire,,Vendée,France
85150,Arrondissement des Sables-d'Olonne,Pays de la Loire,,Vendée,France
85160,Arrondissement des Sables-d'Olonne,Pays de la Loire,,Vendée,France
85161 CEDEX,Arrondissement des Sables-d'Olonne,Pays de la Loire,,Vendée,France
85162 CEDEX,Arrondissement des Sables-d'Olonne,Pays de la Loire,,Vendée,France
85163 CEDEX,Arrondissement des Sables-d'Olonne,Pays de la Loire,,Vendée,France
85164 CEDEX,Arrondissement des Sables-d'Olonne,Pays de la Loire,,Vendée,France
85165 CEDEX,Arrondissement des Sables-d'Olonne,Pays de la Loire,,Vendée,France
85167 CEDEX,Arrondissement des Sables-d'Olonne,Pays de la Loire,,Vendée,France
85169 CEDEX,Arrondissement des Sables-d'Olonne,Pays de la Loire,,Vendée,France
85170,Arrondissement de La Roche-sur-Yon,Pays de la Loire,,Vendée,France
85180,Arrondissement des Sables-d'Olonne,Pays de la Loire,,Vendée,France
85190,Arrondissement de La Roche-sur-Yon,Pays de la Loire,,Vendée,France
85200,Arrondissement de Fontenay-le-Comte,Pays de la Loire,,Vendée,France
85201 CEDEX,Arrondissement de Fontenay-le-Comte,Pays de la Loire,,Vendée,France
85202 CEDEX,Arrondissement de Fontenay-le-Comte,Pays de la Loire,,Vendée,France
85203 CEDEX,Arrondissement de Fontenay-le-Comte,Pays de la Loire,,Vendée,France
85204 CEDEX,Arrondissement de Fontenay-le-Comte,Pays de la Loire,,Vendée,France
85205 CEDEX,Arrondissement de Fontenay-le-Comte,Pays de la Loire,,Vendée,France
85206 CEDEX,Arrondissement de Fontenay-le-Comte,Pays de la Loire,,Vendée,France
85208 CEDEX,Arrondissement de Fontenay-le-Comte,Pays de la Loire,,Vendée,France
85209 CEDEX,Arrondissement de Fontenay-le-Comte,Pays de la Loire,,Vendée,France
85210,Arrondissement de Fontenay-le-Comte,Pays de la Loire,,Vendée,France
85220,Arrondissement des Sables-d'Olonne,Pays de la Loire,,Vendée,France
85230,Arrondissement des Sables-d'Olonne,Pays de la Loire,,Vendée,France
85240,Arrondissement de Fontenay-le-Comte,Pays de la Loire,,Vendée,France
85250,Arrondissement de La Roche-sur-Yon,Pays de la Loire,,Vendée,France
85260,Arrondissement de La Roche-sur-Yon,Pays de la Loire,,Vendée,France
85270,Arrondissement des Sables-d'Olonne,Pays de la Loire,,Vendée,France
85280,Arrondissement de La Roche-sur-Yon,Pays de la Loire,,Vendée,France
85290,Arrondissement de La Roche-sur-Yon,Pays de la Loire,,Vendée,France
85291 CEDEX,Arrondissement de La Roche-sur-Yon,Pays de la Loire,,Vendée,France
85292 CEDEX,Arrondissement de La Roche-sur-Yon,Pays de la Loire,,Vendée,France
85299 CEDEX,Arrondissement de La Roche-sur-Yon,Pays de la Loire,,Vendée,France
85300,Arrondissement des Sables-d'Olonne,Pays de la Loire,,Vendée,France
85301 CEDEX,Arrondissement des Sables-d'Olonne,Pays de la Loire,,Vendée,France
85302 CEDEX,Arrondissement des Sables-d'Olonne,Pays de la Loire,,Vendée,France
85303 CEDEX,Arrondissement des Sables-d'Olonne,Pays de la Loire,,Vendée,France
85304 CEDEX,Arrondissement des Sables-d'Olonne,Pays de la Loire,,Vendée,France
85305 CEDEX,Arrondissement des Sables-d'Olonne,Pays de la Loire,,Vendée,France
85306 CEDEX,Arrondissement des Sables-d'Olonne,Pays de la Loire,,Vendée,France
85307 CEDEX,Arrondissement des Sables-d'Olonne,Pays de la Loire,,Vendée,France
85309 CEDEX,Arrondissement des Sables-d'Olonne,Pays de la Loire,,Vendée,France
85310,Arrondissement de La Roche-sur-Yon,Pays de la Loire,,Vendée,France
85320,Arrondissement de La Roche-sur-Yon,Pays de la Loire,,Vendée,France
85330,Arrondissement des Sables-d'Olonne,Pays de la Loire,,Vendée,France
85340,Arrondissement des Sables-d'Olonne,Pays de la Loire,,Vendée,France
85341 CEDEX,Arrondissement des Sables-d'Olonne,Pays de la Loire,,Vendée,France
85342 CEDEX,Arrondissement des Sables-d'Olonne,Pays de la Loire,,Vendée,France
85350,Arrondissement des Sables-d'Olonne,Pays de la Loire,,Vendée,France
85360,Arrondissement des Sables-d'Olonne,Pays de la Loire,,Vendée,France
85370,Arrondissement de Fontenay-le-Comte,Pays de la Loire,,Vendée,France
85390,Arrondissement de Fontenay-le-Comte,Pays de la Loire,,Vendée,France
85400,Arrondissement de Fontenay-le-Comte,Pays de la Loire,,Vendée,France
85401 CEDEX,Arrondissement de Fontenay-le-Comte,Pays de la Loire,,Vendée,France
85402 CEDEX,Arrondissement de Fontenay-le-Comte,Pays de la Loire,,Vendée,France
85403 CEDEX,Arrondissement de Fontenay-le-Comte,Pays de la Loire,,Vendée,France
85404 CEDEX,Arrondissement de Fontenay-le-Comte,Pays de la Loire,,Vendée,France
85406 CEDEX,Arrondissement de Fontenay-le-Comte,Pays de la Loire,,Vendée,France
85407 CEDEX,Arrondissement de Fontenay-le-Comte,Pays de la Loire,,Vendée,France
85409 CEDEX,Arrondissement de Fontenay-le-Comte,Pays de la Loire,,Vendée,France
85410,Arrondissement de Fontenay-le-Comte,Pays de la Loire,,Vendée,France
85420,Arrondissement de Fontenay-le-Comte,Pays de la Loire,,Vendée,France
85430,Arrondissement des Sables-d'Olonne,Pays de la Loire,,Vendée,France
85440,Arrondissement des Sables-d'Olonne,Pays de la Loire,,Vendée,France
85450,Arrondissement de Fontenay-le-Comte,Pays de la Loire,,Vendée,France
85460,Arrondissement de Fontenay-le-Comte,Pays de la Loire,,Vendée,France
85470,Arrondissement des Sables-d'Olonne,Pays de la Loire,,Vendée,France
85480,Arrondissement de La Roche-sur-Yon,Pays de la Loire,,Vendée,France
85490,Arrondissement de Fontenay-le-Comte,Pays de la Loire,,Vendée,France
85500,Arrondissement de La Roche-sur-Yon,Pays de la Loire,,Vendée,France
85501 CEDEX,Arrondissement de La Roche-sur-Yon,Pays de la Loire,,Vendée,France
85502 CEDEX,Arrondissement de La Roche-sur-Yon,Pays de la Loire,,Vendée,France
85503 CEDEX,Arrondissement de La Roche-sur-Yon,Pays de la Loire,,Vendée,France
85504 CEDEX,Arrondissement de La Roche-sur-Yon,Pays de la Loire,,Vendée,France
85505 CEDEX,Arrondissement de La Roche-sur-Yon,Pays de la Loire,,Vendée,France
85506 CEDEX,Arrondissement de La Roche-sur-Yon,Pays de la Loire,,Vendée,France
85509 CEDEX,Arrondissement de La Roche-sur-Yon,Pays de la Loire,,Vendée,France
85510,Arrondissement de Fontenay-le-Comte,Pays de la Loire,,Vendée,France
85520,Arrondissement des Sables-d'Olonne,Pays de la Loire,,Vendée,France
85530,Arrondissement de La Roche-sur-Yon,Pays de la Loire,,Vendée,France
85540,Arrondissement des Sables-d'Olonne,Pays de la Loire,,Vendée,France
85550,Arrondissement des Sables-d'Olonne,Pays de la Loire,,Vendée,France
85560,Arrondissement des Sables-d'Olonne,Pays de la Loire,,Vendée,France
85570,Arrondissement de Fontenay-le-Comte,Pays de la Loire,,Vendée,France
85580,Arrondissement de Fontenay-le-Comte,Pays de la Loire,,Vendée,France
85590,Arrondissement de La Roche-sur-Yon,Pays de la Loire,,Vendée,France
85600,Arrondissement de La Roche-sur-Yon,Pays de la Loire,,Vendée,France
85601 CEDEX,Arrondissement de La Roche-sur-Yon,Pays de la Loire,,Vendée,France
85602 CEDEX,Arrondissement de La Roche-sur-Yon,Pays de la Loire,,Vendée,France
85603 CEDEX,Arrondissement de La Roche-sur-Yon,Pays de la Loire,,Vendée,France
85604 CEDEX,Arrondissement de La Roche-sur-Yon,Pays de la Loire,,Vendée,France
85607 CEDEX,Arrondissement de La Roche-sur-Yon,Pays de la Loire,,Vendée,France
85609 CEDEX,Arrondissement de La Roche-sur-Yon,Pays de la Loire,,Vendée,France
85610,Arrondissement de La Roche-sur-Yon,Pays de la Loire,,Vendée,France
85612 CEDEX,Arrondissement de La Roche-sur-Yon,Pays de la Loire,,Vendée,France
85613 CEDEX,Arrondissement de La Roche-sur-Yon,Pays de la Loire,,Vendée,France
85614 CEDEX,Arrondissement de La Roche-sur-Yon,Pays de la Loire,,Vendée,France
85615 CEDEX,Arrondissement de La Roche-sur-Yon,Pays de la Loire,,Vendée,France
85616 CEDEX,Arrondissement de La Roche-sur-Yon,Pays de la Loire,,Vendée,France
85620,Arrondissement de La Roche-sur-Yon,Pays de la Loire,,Vendée,France
85630,Arrondissement des Sables-d'Olonne,Pays de la Loire,,Vendée,France
85640,Arrondissement de La Roche-sur-Yon,Pays de la Loire,,Vendée,France
85660,Arrondissement de La Roche-sur-Yon,Pays de la Loire,,Vendée,France
85670,Arrondissement des Sables-d'Olonne,Pays de la Loire,,Vendée,France
85680,Arrondissement des Sables-d'Olonne,Pays de la Loire,,Vendée,France
85690,Arrondissement des Sables-d'Olonne,Pays de la Loire,,Vendée,France
85700,Arrondissement de Fontenay-le-Comte,Pays de la Loire,,Vendée,France
85702 CEDEX,Arrondissement de Fontenay-le-Comte,Pays de la Loire,,Vendée,France
85703 CEDEX,Arrondissement de Fontenay-le-Comte,Pays de la Loire,,Vendée,France
85707 CEDEX,Arrondissement de Fontenay-le-Comte,Pays de la Loire,,Vendée,France
85708 CEDEX,Arrondissement de Fontenay-le-Comte,Pays de la Loire,,Vendée,France
85709 CEDEX,Arrondissement de Fontenay-le-Comte,Pays de la Loire,,Vendée,France
85710,Arrondissement des Sables-d'Olonne,Pays de la Loire,,Vendée,France
85740,Arrondissement des Sables-d'Olonne,Pays de la Loire,,Vendée,France
85750,Arrondissement des Sables-d'Olonne,Pays de la Loire,,Vendée,France
85770,Arrondissement de Fontenay-le-Comte,Pays de la Loire,,Vendée,France
85800,Arrondissement des Sables-d'Olonne,Pays de la Loire,,Vendée,France
85803 CEDEX,Arrondissement des Sables-d'Olonne,Pays de la Loire,,Vendée,France
85804 CEDEX,Arrondissement des Sables-d'Olonne,Pays de la Loire,,Vendée,France
85805 CEDEX,Arrondissement des Sables-d'Olonne,Pays de la Loire,,Vendée,France
85806 CEDEX,Arrondissement des Sables-d'Olonne,Pays de la Loire,,Vendée,France
85809 CEDEX,Arrondissement des Sables-d'Olonne,Pays de la Loire,,Vendée,France
85919 CEDEX 9,Arrondissement de La Roche-sur-Yon,Pays de la Loire,,Vendée,France
85921 CEDEX 9,Arrondissement de La Roche-sur-Yon,Pays de la Loire,,Vendée,France
85922 CEDEX 9,Arrondissement de La Roche-sur-Yon,Pays de la Loire,,Vendée,France
85923 CEDEX 9,Arrondissement de La Roche-sur-Yon,Pays de la Loire,,Vendée,France
85924 CEDEX 9,Arrondissement de La Roche-sur-Yon,Pays de la Loire,,Vendée,France
85925 CEDEX 9,Arrondissement de La Roche-sur-Yon,Pays de la Loire,,Vendée,France
85926 CEDEX 9,Arrondissement de La Roche-sur-Yon,Pays de la Loire,,Vendée,France
85927 CEDEX 9,Arrondissement de La Roche-sur-Yon,Pays de la Loire,,Vendée,France
85928 CEDEX 9,Arrondissement de La Roche-sur-Yon,Pays de la Loire,,Vendée,France
85930 CEDEX 9,Arrondissement de La Roche-sur-Yon,Pays de la Loire,,Vendée,France
85931 CEDEX 9,Arrondissement de La Roche-sur-Yon,Pays de la Loire,,Vendée,France
85932 CEDEX 9,Arrondissement de La Roche-sur-Yon,Pays de la Loire,,Vendée,France
85933 CEDEX 9,Arrondissement de La Roche-sur-Yon,Pays de la Loire,,Vendée,France
85934 CEDEX 9,Arrondissement de La Roche-sur-Yon,Pays de la Loire,,Vendée,France
2000,Arrondissement de Laon,Picardie,,Aisne,France
02001 CEDEX,Arrondissement de Laon,Picardie,,Aisne,France
02002 CEDEX,Arrondissement de Laon,Picardie,,Aisne,France
02003 CEDEX,Arrondissement de Laon,Picardie,,Aisne,France
02004 CEDEX,Arrondissement de Laon,Picardie,,Aisne,France
02005 CEDEX,Arrondissement de Laon,Picardie,,Aisne,France
02006 CEDEX,Arrondissement de Laon,Picardie,,Aisne,France
02007 CEDEX,Arrondissement de Laon,Picardie,,Aisne,France
02008 CEDEX 9,Arrondissement de Laon,Picardie,,Aisne,France
02009 CEDEX 9,Arrondissement de Laon,Picardie,,Aisne,France
02010 CEDEX 9,Arrondissement de Laon,Picardie,,Aisne,France
02011 CEDEX,Arrondissement de Laon,Picardie,,Aisne,France
02012 CEDEX,Arrondissement de Laon,Picardie,,Aisne,France
02013 CEDEX 9,Arrondissement de Laon,Picardie,,Aisne,France
02014 CEDEX 9,Arrondissement de Laon,Picardie,,Aisne,France
02015 CEDEX,Arrondissement de Laon,Picardie,,Aisne,France
02016 CEDEX 9,Arrondissement de Laon,Picardie,,Aisne,France
02017 CEDEX,Arrondissement de Laon,Picardie,,Aisne,France
02018 CEDEX 9,Arrondissement de Laon,Picardie,,Aisne,France
02019 CEDEX,Arrondissement de Laon,Picardie,,Aisne,France
02020 CEDEX 9,Arrondissement de Laon,Picardie,,Aisne,France
02025 CEDEX 9,Arrondissement de Laon,Picardie,,Aisne,France
2100,Arrondissement de Saint-Quentin,Picardie,,Aisne,France
02101 CEDEX,Arrondissement de Saint-Quentin,Picardie,,Aisne,France
02102 CEDEX,Arrondissement de Saint-Quentin,Picardie,,Aisne,France
02103 CEDEX,Arrondissement de Saint-Quentin,Picardie,,Aisne,France
02104 CEDEX,Arrondissement de Saint-Quentin,Picardie,,Aisne,France
02105 CEDEX,Arrondissement de Saint-Quentin,Picardie,,Aisne,France
02106 CEDEX,Arrondissement de Saint-Quentin,Picardie,,Aisne,France
02107 CEDEX,Arrondissement de Saint-Quentin,Picardie,,Aisne,France
02108 CEDEX,Arrondissement de Saint-Quentin,Picardie,,Aisne,France
02109 CEDEX,Arrondissement de Saint-Quentin,Picardie,,Aisne,France
2110,Arrondissement de Saint-Quentin,Picardie,,Aisne,France
2120,Arrondissement de Vervins,Picardie,,Aisne,France
2130,Arrondissement de Château-Thierry,Picardie,,Aisne,France
2140,Arrondissement de Vervins,Picardie,,Aisne,France
2150,Arrondissement de Laon,Picardie,,Aisne,France
02151 CEDEX,Arrondissement de Laon,Picardie,,Aisne,France
2160,Arrondissement de Soissons,Picardie,,Aisne,France
2170,Arrondissement de Vervins,Picardie,,Aisne,France
2190,Arrondissement de Laon,Picardie,,Aisne,France
2200,Arrondissement de Soissons,Picardie,,Aisne,France
02201 CEDEX,Arrondissement de Soissons,Picardie,,Aisne,France
02202 CEDEX,Arrondissement de Soissons,Picardie,,Aisne,France
02203 CEDEX,Arrondissement de Soissons,Picardie,,Aisne,France
02204 CEDEX,Arrondissement de Soissons,Picardie,,Aisne,France
02205 CEDEX,Arrondissement de Soissons,Picardie,,Aisne,France
02206 CEDEX,Arrondissement de Soissons,Picardie,,Aisne,France
02207 CEDEX,Arrondissement de Soissons,Picardie,,Aisne,France
02208 CEDEX,Arrondissement de Soissons,Picardie,,Aisne,France
02209 CEDEX,Arrondissement de Soissons,Picardie,,Aisne,France
2210,Arrondissement de Château-Thierry,Picardie,,Aisne,France
2220,Arrondissement de Soissons,Picardie,,Aisne,France
2230,Arrondissement de Saint-Quentin,Picardie,,Aisne,France
2240,Arrondissement de Saint-Quentin,Picardie,,Aisne,France
2250,Arrondissement de Laon,Picardie,,Aisne,France
2260,Arrondissement de Vervins,Picardie,,Aisne,France
2270,Arrondissement de Saint-Quentin,Picardie,,Aisne,France
2290,Arrondissement de Soissons,Picardie,,Aisne,France
2300,Arrondissement de Laon,Picardie,,Aisne,France
02301 CEDEX,Arrondissement de Laon,Picardie,,Aisne,France
02302 CEDEX,Arrondissement de Laon,Picardie,,Aisne,France
02303 CEDEX,Arrondissement de Laon,Picardie,,Aisne,France
02309 CEDEX,Arrondissement de Laon,Picardie,,Aisne,France
2310,Arrondissement de Château-Thierry,Picardie,,Aisne,France
02314 CEDEX,Arrondissement de Saint-Quentin,Picardie,,Aisne,France
02315 CEDEX,Arrondissement de Saint-Quentin,Picardie,,Aisne,France
2320,Arrondissement de Laon,Picardie,,Aisne,France
02321 CEDEX,Arrondissement de Saint-Quentin,Picardie,,Aisne,France
02322 CEDEX,Arrondissement de Saint-Quentin,Picardie,,Aisne,France
02323 CEDEX,Arrondissement de Saint-Quentin,Picardie,,Aisne,France
02324 CEDEX,Arrondissement de Saint-Quentin,Picardie,,Aisne,France
02325 CEDEX,Arrondissement de Saint-Quentin,Picardie,,Aisne,France
02326 CEDEX,Arrondissement de Soissons,Picardie,,Aisne,France
02327 CEDEX,Arrondissement de Soissons,Picardie,,Aisne,France
02329 CEDEX,Arrondissement de Soissons,Picardie,,Aisne,France
2330,Arrondissement de Château-Thierry,Picardie,,Aisne,France
02331 CEDEX,Arrondissement de Soissons,Picardie,,Aisne,France
2340,Arrondissement de Laon,Picardie,,Aisne,France
2350,Arrondissement de Laon,Picardie,,Aisne,France
2360,Arrondissement de Laon,Picardie,,Aisne,France
2370,Arrondissement de Soissons,Picardie,,Aisne,France
2380,Arrondissement de Laon,Picardie,,Aisne,France
2390,Arrondissement de Saint-Quentin,Picardie,,Aisne,France
2400,Arrondissement de Château-Thierry,Picardie,,Aisne,France
02401 CEDEX,Arrondissement de Château-Thierry,Picardie,,Aisne,France
02402 CEDEX,Arrondissement de Château-Thierry,Picardie,,Aisne,France
02403 CEDEX,Arrondissement de Château-Thierry,Picardie,,Aisne,France
02404 CEDEX,Arrondissement de Château-Thierry,Picardie,,Aisne,France
02405 CEDEX,Arrondissement de Château-Thierry,Picardie,,Aisne,France
02406 CEDEX,Arrondissement de Château-Thierry,Picardie,,Aisne,France
02407 CEDEX,Arrondissement de Château-Thierry,Picardie,,Aisne,France
02409 CEDEX,Arrondissement de Château-Thierry,Picardie,,Aisne,France
2410,Arrondissement de Laon,Picardie,,Aisne,France
2420,Arrondissement de Saint-Quentin,Picardie,,Aisne,France
2430,Arrondissement de Saint-Quentin,Picardie,,Aisne,France
2440,Arrondissement de Saint-Quentin,Picardie,,Aisne,France
2450,Arrondissement de Vervins,Picardie,,Aisne,France
2460,Arrondissement de Château-Thierry,Picardie,,Aisne,France
2470,Arrondissement de Château-Thierry,Picardie,,Aisne,France
2480,Arrondissement de Saint-Quentin,Picardie,,Aisne,France
2490,Arrondissement de Saint-Quentin,Picardie,,Aisne,France
2500,Arrondissement de Vervins,Picardie,,Aisne,France
2510,Arrondissement de Vervins,Picardie,,Aisne,France
2520,Arrondissement de Saint-Quentin,Picardie,,Aisne,France
2540,Arrondissement de Château-Thierry,Picardie,,Aisne,France
2550,Arrondissement de Vervins,Picardie,,Aisne,France
2570,Arrondissement de Château-Thierry,Picardie,,Aisne,France
2580,Arrondissement de Vervins,Picardie,,Aisne,France
2590,Arrondissement de Saint-Quentin,Picardie,,Aisne,France
2600,Arrondissement de Soissons,Picardie,,Aisne,France
02601 CEDEX,Arrondissement de Soissons,Picardie,,Aisne,France
02602 CEDEX,Arrondissement de Soissons,Picardie,,Aisne,France
02603 CEDEX,Arrondissement de Soissons,Picardie,,Aisne,France
02604 CEDEX,Arrondissement de Soissons,Picardie,,Aisne,France
02609 CEDEX,Arrondissement de Soissons,Picardie,,Aisne,France
2610,Arrondissement de Saint-Quentin,Picardie,,Aisne,France
2620,Arrondissement de Vervins,Picardie,,Aisne,France
2630,Arrondissement de Vervins,Picardie,,Aisne,France
2640,Arrondissement de Saint-Quentin,Picardie,,Aisne,France
2650,Arrondissement de Château-Thierry,Picardie,,Aisne,France
2670,Arrondissement de Laon,Picardie,,Aisne,France
2680,Arrondissement de Saint-Quentin,Picardie,,Aisne,France
2690,Arrondissement de Saint-Quentin,Picardie,,Aisne,France
2700,Arrondissement de Laon,Picardie,,Aisne,France
2720,Arrondissement de Saint-Quentin,Picardie,,Aisne,France
2760,Arrondissement de Saint-Quentin,Picardie,,Aisne,France
2790,Arrondissement de Saint-Quentin,Picardie,,Aisne,France
2800,Arrondissement de Laon,Picardie,,Aisne,France
2810,Arrondissement de Château-Thierry,Picardie,,Aisne,France
2820,Arrondissement de Laon,Picardie,,Aisne,France
2830,Arrondissement de Vervins,Picardie,,Aisne,France
2840,Arrondissement de Laon,Picardie,,Aisne,France
2850,Arrondissement de Château-Thierry,Picardie,,Aisne,France
2860,Arrondissement de Laon,Picardie,,Aisne,France
2870,Arrondissement de Laon,Picardie,,Aisne,France
2880,Arrondissement de Soissons,Picardie,,Aisne,France
02930 CEDEX 9,Arrondissement de Laon,Picardie,,Aisne,France
02939 CEDEX 9,Arrondissement de Laon,Picardie,,Aisne,France
60000,Arrondissement de Beauvais,Picardie,,Oise,France
60002 CEDEX,Arrondissement de Beauvais,Picardie,,Oise,France
60004 CEDEX,Arrondissement de Beauvais,Picardie,,Oise,France
60005 CEDEX,Arrondissement de Beauvais,Picardie,,Oise,France
60006 CEDEX,Arrondissement de Beauvais,Picardie,,Oise,France
60007 CEDEX,Arrondissement de Beauvais,Picardie,,Oise,France
60008 CEDEX,Arrondissement de Beauvais,Picardie,,Oise,France
60009 CEDEX,Arrondissement de Beauvais,Picardie,,Oise,France
60010 CEDEX,Arrondissement de Beauvais,Picardie,,Oise,France
60011 CEDEX,Arrondissement de Beauvais,Picardie,,Oise,France
60012 CEDEX,Arrondissement de Beauvais,Picardie,,Oise,France
60013 CEDEX,Arrondissement de Beauvais,Picardie,,Oise,France
60014 CEDEX,Arrondissement de Beauvais,Picardie,,Oise,France
60015 CEDEX,Arrondissement de Beauvais,Picardie,,Oise,France
60016 CEDEX,Arrondissement de Beauvais,Picardie,,Oise,France
60017 CEDEX,Arrondissement de Beauvais,Picardie,,Oise,France
60018 CEDEX,Arrondissement de Beauvais,Picardie,,Oise,France
60019 CEDEX,Arrondissement de Beauvais,Picardie,,Oise,France
60021 CEDEX,Arrondissement de Beauvais,Picardie,,Oise,France
60022 CEDEX,Arrondissement de Beauvais,Picardie,,Oise,France
60023 CEDEX,Arrondissement de Beauvais,Picardie,,Oise,France
60024 CEDEX,Arrondissement de Beauvais,Picardie,,Oise,France
60025 CEDEX,Arrondissement de Beauvais,Picardie,,Oise,France
60026 CEDEX,Arrondissement de Beauvais,Picardie,,Oise,France
60027 CEDEX,Arrondissement de Beauvais,Picardie,,Oise,France
60028 CEDEX,Arrondissement de Beauvais,Picardie,,Oise,France
60029 CEDEX,Arrondissement de Beauvais,Picardie,,Oise,France
60031 CEDEX,Arrondissement de Beauvais,Picardie,,Oise,France
60035 CEDEX,Arrondissement de Beauvais,Picardie,,Oise,France
60100,Arrondissement de Senlis,Picardie,,Oise,France
60101 CEDEX 1,Arrondissement de Senlis,Picardie,,Oise,France
60102 CEDEX 3,Arrondissement de Senlis,Picardie,,Oise,France
60103 CEDEX 1,Arrondissement de Senlis,Picardie,,Oise,France
60104 CEDEX 1,Arrondissement de Senlis,Picardie,,Oise,France
60105 CEDEX 1,Arrondissement de Senlis,Picardie,,Oise,France
60106 CEDEX 1,Arrondissement de Senlis,Picardie,,Oise,France
60107 CEDEX 1,Arrondissement de Senlis,Picardie,,Oise,France
60108 CEDEX 1,Arrondissement de Senlis,Picardie,,Oise,France
60109 CEDEX 1,Arrondissement de Senlis,Picardie,,Oise,France
60110,Arrondissement de Beauvais,Picardie,,Oise,France
60111 CEDEX,Arrondissement de Beauvais,Picardie,,Oise,France
60112,Arrondissement de Beauvais,Picardie,,Oise,France
60113,Arrondissement de Compiègne,Picardie,,Oise,France
60114 CEDEX,Arrondissement de Beauvais,Picardie,,Oise,France
60115 CEDEX,Arrondissement de Beauvais,Picardie,,Oise,France
60116 CEDEX,Arrondissement de Beauvais,Picardie,,Oise,France
60117,Arrondissement de Senlis,Picardie,,Oise,France
60118 CEDEX,Arrondissement de Beauvais,Picardie,,Oise,France
60119,Arrondissement de Beauvais,Picardie,,Oise,France
60120,Arrondissement de Clermont,Picardie,,Oise,France
60121 CEDEX,Arrondissement de Clermont,Picardie,,Oise,France
60122 CEDEX,Arrondissement de Clermont,Picardie,,Oise,France
60123,Arrondissement de Senlis,Picardie,,Oise,France
60126,Arrondissement de Compiègne,Picardie,,Oise,France
60127,Arrondissement de Senlis,Picardie,,Oise,France
60128,Arrondissement de Senlis,Picardie,,Oise,France
60129,Arrondissement de Senlis,Picardie,,Oise,France
60130,Arrondissement de Clermont,Picardie,,Oise,France
60131 CEDEX,Arrondissement de Clermont,Picardie,,Oise,France
60132 CEDEX,Arrondissement de Clermont,Picardie,,Oise,France
60134,Arrondissement de Beauvais,Picardie,,Oise,France
60138,Arrondissement de Compiègne,Picardie,,Oise,France
60140,Arrondissement de Clermont,Picardie,,Oise,France
60141,Arrondissement de Senlis,Picardie,,Oise,France
60149,Arrondissement de Beauvais,Picardie,,Oise,France
60150,Arrondissement de Compiègne,Picardie,,Oise,France
60153,Arrondissement de Compiègne,Picardie,,Oise,France
60155,Arrondissement de Beauvais,Picardie,,Oise,France
60157,Arrondissement de Compiègne,Picardie,,Oise,France
60160,Arrondissement de Senlis,Picardie,,Oise,France
60162,Arrondissement de Compiègne,Picardie,,Oise,France
60170,Arrondissement de Compiègne,Picardie,,Oise,France
60173,Arrondissement de Beauvais,Picardie,,Oise,France
60175,Arrondissement de Beauvais,Picardie,,Oise,France
60180,Arrondissement de Senlis,Picardie,,Oise,France
60181 CEDEX,Arrondissement de Senlis,Picardie,,Oise,France
60183 CEDEX,Arrondissement de Senlis,Picardie,,Oise,France
60184 CEDEX,Arrondissement de Senlis,Picardie,,Oise,France
60185 CEDEX,Arrondissement de Senlis,Picardie,,Oise,France
60190,Arrondissement de Compiègne,Picardie,,Oise,France
60200,Arrondissement de Compiègne,Picardie,,Oise,France
60201 CEDEX,Arrondissement de Compiègne,Picardie,,Oise,France
60202 CEDEX,Arrondissement de Compiègne,Picardie,,Oise,France
60203 CEDEX,Arrondissement de Compiègne,Picardie,,Oise,France
60204 CEDEX,Arrondissement de Compiègne,Picardie,,Oise,France
60205 CEDEX,Arrondissement de Compiègne,Picardie,,Oise,France
60206 CEDEX,Arrondissement de Compiègne,Picardie,,Oise,France
60207 CEDEX,Arrondissement de Compiègne,Picardie,,Oise,France
60208 CEDEX,Arrondissement de Compiègne,Picardie,,Oise,France
60209 CEDEX,Arrondissement de Compiègne,Picardie,,Oise,France
60210,Arrondissement de Beauvais,Picardie,,Oise,France
60220,Arrondissement de Beauvais,Picardie,,Oise,France
60230,Arrondissement de Senlis,Picardie,,Oise,France
60240,Arrondissement de Beauvais,Picardie,,Oise,France
60250,Arrondissement de Clermont,Picardie,,Oise,France
60251 CEDEX,Arrondissement de Clermont,Picardie,,Oise,France
60252 CEDEX,Arrondissement de Clermont,Picardie,,Oise,France
60260,Arrondissement de Senlis,Picardie,,Oise,France
60270,Arrondissement de Senlis,Picardie,,Oise,France
60271 CEDEX,Arrondissement de Senlis,Picardie,,Oise,France
60280,Arrondissement de Compiègne,Picardie,,Oise,France
60281 CEDEX,Arrondissement de Compiègne,Picardie,,Oise,France
60290,Arrondissement de Clermont,Picardie,,Oise,France
60291 CEDEX,Arrondissement de Clermont,Picardie,,Oise,France
60292 CEDEX,Arrondissement de Clermont,Picardie,,Oise,France
60293 CEDEX,Arrondissement de Clermont,Picardie,,Oise,France
60299 CEDEX,Arrondissement de Clermont,Picardie,,Oise,France
60300,Arrondissement de Senlis,Picardie,,Oise,France
60301 CEDEX,Arrondissement de Senlis,Picardie,,Oise,France
60302 CEDEX,Arrondissement de Senlis,Picardie,,Oise,France
60303 CEDEX,Arrondissement de Senlis,Picardie,,Oise,France
60304 CEDEX,Arrondissement de Senlis,Picardie,,Oise,France
60305 CEDEX,Arrondissement de Senlis,Picardie,,Oise,France
60306 CEDEX,Arrondissement de Senlis,Picardie,,Oise,France
60307 CEDEX,Arrondissement de Senlis,Picardie,,Oise,France
60308 CEDEX,Arrondissement de Senlis,Picardie,,Oise,France
60309 CEDEX,Arrondissement de Senlis,Picardie,,Oise,France
60310,Arrondissement de Compiègne,Picardie,,Oise,France
60311 CEDEX 2,Arrondissement de Senlis,Picardie,,Oise,France
60312 CEDEX 2,Arrondissement de Senlis,Picardie,,Oise,France
60313 CEDEX 1,Arrondissement de Senlis,Picardie,,Oise,France
60314 CEDEX 1,Arrondissement de Senlis,Picardie,,Oise,France
60315 CEDEX 5,Arrondissement de Senlis,Picardie,,Oise,France
60316 CEDEX 1,Arrondissement de Senlis,Picardie,,Oise,France
60317 CEDEX 1,Arrondissement de Senlis,Picardie,,Oise,France
60318 CEDEX 2,Arrondissement de Senlis,Picardie,,Oise,France
60319 CEDEX 2,Arrondissement de Senlis,Picardie,,Oise,France
60320,Arrondissement de Senlis,Picardie,,Oise,France
60321 CEDEX,Arrondissement de Compiègne,Picardie,,Oise,France
60323 CEDEX,Arrondissement de Compiègne,Picardie,,Oise,France
60329 CEDEX,Arrondissement de Compiègne,Picardie,,Oise,France
60330,Arrondissement de Senlis,Picardie,,Oise,France
60332 CEDEX,Arrondissement de Clermont,Picardie,,Oise,France
60340,Arrondissement de Senlis,Picardie,,Oise,France
60350,Arrondissement de Compiègne,Picardie,,Oise,France
60360,Arrondissement de Beauvais,Picardie,,Oise,France
60370,Arrondissement de Clermont,Picardie,,Oise,France
60380,Arrondissement de Beauvais,Picardie,,Oise,France
60390,Arrondissement de Beauvais,Picardie,,Oise,France
60400,Arrondissement de Compiègne,Picardie,,Oise,France
60401 CEDEX,Arrondissement de Compiègne,Picardie,,Oise,France
60402 CEDEX,Arrondissement de Compiègne,Picardie,,Oise,France
60403 CEDEX,Arrondissement de Compiègne,Picardie,,Oise,France
60406 CEDEX,Arrondissement de Compiègne,Picardie,,Oise,France
60409 CEDEX,Arrondissement de Compiègne,Picardie,,Oise,France
60410,Arrondissement de Senlis,Picardie,,Oise,France
60420,Arrondissement de Clermont,Picardie,,Oise,France
60430,Arrondissement de Beauvais,Picardie,,Oise,France
60431 CEDEX,Arrondissement de Beauvais,Picardie,,Oise,France
60432 CEDEX,Arrondissement de Beauvais,Picardie,,Oise,France
60433 CEDEX,Arrondissement de Beauvais,Picardie,,Oise,France
60434 CEDEX,Arrondissement de Beauvais,Picardie,,Oise,France
60435 CEDEX,Arrondissement de Beauvais,Picardie,,Oise,France
60436 CEDEX,Arrondissement de Beauvais,Picardie,,Oise,France
60437 CEDEX,Arrondissement de Beauvais,Picardie,,Oise,France
60440,Arrondissement de Senlis,Picardie,,Oise,France
60451 CEDEX,Arrondissement de Senlis,Picardie,,Oise,France
60460,Arrondissement de Senlis,Picardie,,Oise,France
60476 CEDEX,Arrondissement de Compiègne,Picardie,,Oise,France
60477 CEDEX,Arrondissement de Compiègne,Picardie,,Oise,France
60480,Arrondissement de Beauvais,Picardie,,Oise,France
60490,Arrondissement de Compiègne,Picardie,,Oise,France
60500,Arrondissement de Senlis,Picardie,,Oise,France
60501 CEDEX,Arrondissement de Senlis,Picardie,,Oise,France
60503 CEDEX,Arrondissement de Senlis,Picardie,,Oise,France
60504 CEDEX,Arrondissement de Senlis,Picardie,,Oise,France
60506 CEDEX,Arrondissement de Senlis,Picardie,,Oise,France
60508 CEDEX,Arrondissement de Senlis,Picardie,,Oise,France
60509 CEDEX,Arrondissement de Senlis,Picardie,,Oise,France
60510,Arrondissement de Clermont,Picardie,,Oise,France
60520,Arrondissement de Senlis,Picardie,,Oise,France
60530,Arrondissement de Senlis,Picardie,,Oise,France
60540,Arrondissement de Beauvais,Picardie,,Oise,France
60541 CEDEX,Arrondissement de Beauvais,Picardie,,Oise,France
60542 CEDEX,Arrondissement de Beauvais,Picardie,,Oise,France
60543 CEDEX,Arrondissement de Beauvais,Picardie,,Oise,France
60544 CEDEX,Arrondissement de Beauvais,Picardie,,Oise,France
60550,Arrondissement de Senlis,Picardie,,Oise,France
60551 CEDEX,Arrondissement de Senlis,Picardie,,Oise,France
60552 CEDEX,Arrondissement de Senlis,Picardie,,Oise,France
60560,Arrondissement de Senlis,Picardie,,Oise,France
60570,Arrondissement de Beauvais,Picardie,,Oise,France
60580,Arrondissement de Senlis,Picardie,,Oise,France
60590,Arrondissement de Beauvais,Picardie,,Oise,France
60600,Arrondissement de Clermont,Picardie,,Oise,France
60602 CEDEX,Arrondissement de Clermont,Picardie,,Oise,France
60603 CEDEX,Arrondissement de Clermont,Picardie,,Oise,France
60607 CEDEX,Arrondissement de Clermont,Picardie,,Oise,France
60608 CEDEX,Arrondissement de Clermont,Picardie,,Oise,France
60609 CEDEX,Arrondissement de Clermont,Picardie,,Oise,France
60610,Arrondissement de Compiègne,Picardie,,Oise,France
60611 CEDEX,Arrondissement de Compiègne,Picardie,,Oise,France
60612 CEDEX,Arrondissement de Compiègne,Picardie,,Oise,France
60617 CEDEX,Arrondissement de Compiègne,Picardie,,Oise,France
60618 CEDEX,Arrondissement de Compiègne,Picardie,,Oise,France
60619 CEDEX,Arrondissement de Compiègne,Picardie,,Oise,France
60620,Arrondissement de Senlis,Picardie,,Oise,France
60631 CEDEX,Arrondissement de Senlis,Picardie,,Oise,France
60632 CEDEX,Arrondissement de Senlis,Picardie,,Oise,France
60633 CEDEX,Arrondissement de Senlis,Picardie,,Oise,France
60634 CEDEX,Arrondissement de Senlis,Picardie,,Oise,France
60635 CEDEX,Arrondissement de Senlis,Picardie,,Oise,France
60637 CEDEX,Arrondissement de Senlis,Picardie,,Oise,France
60638 CEDEX,Arrondissement de Senlis,Picardie,,Oise,France
60639 CEDEX,Arrondissement de Senlis,Picardie,,Oise,France
60640,Arrondissement de Compiègne,Picardie,,Oise,France
60643 CEDEX,Arrondissement de Senlis,Picardie,,Oise,France
60646 CEDEX,Arrondissement de Senlis,Picardie,,Oise,France
60647 CEDEX,Arrondissement de Senlis,Picardie,,Oise,France
60648 CEDEX,Arrondissement de Senlis,Picardie,,Oise,France
60649 CEDEX,Arrondissement de Senlis,Picardie,,Oise,France
60650,Arrondissement de Beauvais,Picardie,,Oise,France
60660,Arrondissement de Senlis,Picardie,,Oise,France
60671 CEDEX,Arrondissement de Senlis,Picardie,,Oise,France
60672 CEDEX,Arrondissement de Senlis,Picardie,,Oise,France
60674 CEDEX,Arrondissement de Senlis,Picardie,,Oise,France
60677 CEDEX,Arrondissement de Clermont,Picardie,,Oise,France
60680,Arrondissement de Compiègne,Picardie,,Oise,France
60690,Arrondissement de Beauvais,Picardie,,Oise,France
60700,Arrondissement de Clermont,Picardie,,Oise,France
60710,Arrondissement de Compiègne,Picardie,,Oise,France
60711 CEDEX,Arrondissement de Compiègne,Picardie,,Oise,France
60721 CEDEX,Arrondissement de Senlis,Picardie,,Oise,France
60722 CEDEX,Arrondissement de Senlis,Picardie,,Oise,France
60723 CEDEX,Arrondissement de Senlis,Picardie,,Oise,France
60729 CEDEX,Arrondissement de Senlis,Picardie,,Oise,France
60730,Arrondissement de Beauvais,Picardie,,Oise,France
60731 CEDEX,Arrondissement de Beauvais,Picardie,,Oise,France
60732 CEDEX,Arrondissement de Beauvais,Picardie,,Oise,France
60734 CEDEX,Arrondissement de Beauvais,Picardie,,Oise,France
60740,Arrondissement de Senlis,Picardie,,Oise,France
60741 CEDEX,Arrondissement de Senlis,Picardie,,Oise,France
60742 CEDEX,Arrondissement de Senlis,Picardie,,Oise,France
60743 CEDEX,Arrondissement de Senlis,Picardie,,Oise,France
60744 CEDEX,Arrondissement de Senlis,Picardie,,Oise,France
60745 CEDEX,Arrondissement de Senlis,Picardie,,Oise,France
60749 CEDEX,Arrondissement de Senlis,Picardie,,Oise,France
60750,Arrondissement de Compiègne,Picardie,,Oise,France
60751 CEDEX,Arrondissement de Compiègne,Picardie,,Oise,France
60761 CEDEX,Arrondissement de Senlis,Picardie,,Oise,France
60762 CEDEX,Arrondissement de Senlis,Picardie,,Oise,France
60765 CEDEX,Arrondissement de Senlis,Picardie,,Oise,France
60771 CEDEX,Arrondissement de Compiègne,Picardie,,Oise,France
60772 CEDEX,Arrondissement de Compiègne,Picardie,,Oise,France
60776 CEDEX,Arrondissement de Compiègne,Picardie,,Oise,France
60777 CEDEX,Arrondissement de Compiègne,Picardie,,Oise,France
60779 CEDEX,Arrondissement de Compiègne,Picardie,,Oise,France
60790,Arrondissement de Beauvais,Picardie,,Oise,France
60800,Arrondissement de Senlis,Picardie,,Oise,France
60801 CEDEX,Arrondissement de Senlis,Picardie,,Oise,France
60802 CEDEX,Arrondissement de Senlis,Picardie,,Oise,France
60803 CEDEX,Arrondissement de Senlis,Picardie,,Oise,France
60804 CEDEX,Arrondissement de Senlis,Picardie,,Oise,France
60805 CEDEX,Arrondissement de Senlis,Picardie,,Oise,France
60810,Arrondissement de Senlis,Picardie,,Oise,France
60820,Arrondissement de Senlis,Picardie,,Oise,France
60831 CEDEX 1,Arrondissement de Senlis,Picardie,,Oise,France
60832 CEDEX 1,Arrondissement de Senlis,Picardie,,Oise,France
60833 CEDEX 1,Arrondissement de Senlis,Picardie,,Oise,France
60840,Arrondissement de Clermont,Picardie,,Oise,France
60850,Arrondissement de Beauvais,Picardie,,Oise,France
60860,Arrondissement de Beauvais,Picardie,,Oise,France
60870,Arrondissement de Clermont,Picardie,,Oise,France
60871 CEDEX,Arrondissement de Clermont,Picardie,,Oise,France
60872 CEDEX,Arrondissement de Clermont,Picardie,,Oise,France
60880,Arrondissement de Compiègne,Picardie,,Oise,France
60890,Arrondissement de Senlis,Picardie,,Oise,France
60902 CEDEX 9,Arrondissement de Senlis,Picardie,,Oise,France
60903 CEDEX 9,Arrondissement de Senlis,Picardie,,Oise,France
60908 CEDEX 9,Arrondissement de Senlis,Picardie,,Oise,France
60909 CEDEX 9,Arrondissement de Senlis,Picardie,,Oise,France
60911 CEDEX 9,Arrondissement de Senlis,Picardie,,Oise,France
60912 CEDEX 9,Arrondissement de Senlis,Picardie,,Oise,France
60921 CEDEX 9,Arrondissement de Senlis,Picardie,,Oise,France
60922 CEDEX 9,Arrondissement de Senlis,Picardie,,Oise,France
60923 CEDEX 9,Arrondissement de Senlis,Picardie,,Oise,France
60924 CEDEX 9,Arrondissement de Senlis,Picardie,,Oise,France
60930,Arrondissement de Beauvais,Picardie,,Oise,France
60931 CEDEX 9,Arrondissement de Senlis,Picardie,,Oise,France
60932 CEDEX 9,Arrondissement de Senlis,Picardie,,Oise,France
60940,Arrondissement de Clermont,Picardie,,Oise,France
60950,Arrondissement de Senlis,Picardie,,Oise,France
60960,Arrondissement de Beauvais,Picardie,,Oise,France
60981 CEDEX 9,Arrondissement de Senlis,Picardie,,Oise,France
80000,Arrondissement d'Amiens,Picardie,,Somme,France
80001 CEDEX 1,Arrondissement d'Amiens,Picardie,,Somme,France
80002 CEDEX 1,Arrondissement d'Amiens,Picardie,,Somme,France
80003 CEDEX 1,Arrondissement d'Amiens,Picardie,,Somme,France
80004 CEDEX 1,Arrondissement d'Amiens,Picardie,,Somme,France
80005 CEDEX 1,Arrondissement d'Amiens,Picardie,,Somme,France
80006 CEDEX 1,Arrondissement d'Amiens,Picardie,,Somme,France
80007 CEDEX 1,Arrondissement d'Amiens,Picardie,,Somme,France
80008 CEDEX 1,Arrondissement d'Amiens,Picardie,,Somme,France
80009 CEDEX 1,Arrondissement d'Amiens,Picardie,,Somme,France
80010 CEDEX 1,Arrondissement d'Amiens,Picardie,,Somme,France
80011 CEDEX 1,Arrondissement d'Amiens,Picardie,,Somme,France
80012 CEDEX 1,Arrondissement d'Amiens,Picardie,,Somme,France
80013 CEDEX 2,Arrondissement d'Amiens,Picardie,,Somme,France
80014 CEDEX 1,Arrondissement d'Amiens,Picardie,,Somme,France
80015 CEDEX 2,Arrondissement d'Amiens,Picardie,,Somme,France
80016 CEDEX 1,Arrondissement d'Amiens,Picardie,,Somme,France
80017 CEDEX 1,Arrondissement d'Amiens,Picardie,,Somme,France
80019 CEDEX 9,Arrondissement d'Amiens,Picardie,,Somme,France
80020 CEDEX 9,Arrondissement d'Amiens,Picardie,,Somme,France
80021 CEDEX 1,Arrondissement d'Amiens,Picardie,,Somme,France
80022 CEDEX 9,Arrondissement d'Amiens,Picardie,,Somme,France
80023 CEDEX 3,Arrondissement d'Amiens,Picardie,,Somme,France
80025 CEDEX 1,Arrondissement d'Amiens,Picardie,,Somme,France
80026 CEDEX 1,Arrondissement d'Amiens,Picardie,,Somme,France
80027 CEDEX 1,Arrondissement d'Amiens,Picardie,,Somme,France
80028 CEDEX 3,Arrondissement d'Amiens,Picardie,,Somme,France
80029 CEDEX 1,Arrondissement d'Amiens,Picardie,,Somme,France
80030 CEDEX 1,Arrondissement d'Amiens,Picardie,,Somme,France
80031 CEDEX 1,Arrondissement d'Amiens,Picardie,,Somme,France
80032 CEDEX 1,Arrondissement d'Amiens,Picardie,,Somme,France
80033 CEDEX 3,Arrondissement d'Amiens,Picardie,,Somme,France
80034 CEDEX 1,Arrondissement d'Amiens,Picardie,,Somme,France
80036 CEDEX 1,Arrondissement d'Amiens,Picardie,,Somme,France
80037 CEDEX 1,Arrondissement d'Amiens,Picardie,,Somme,France
80038 CEDEX 1,Arrondissement d'Amiens,Picardie,,Somme,France
80039 CEDEX 1,Arrondissement d'Amiens,Picardie,,Somme,France
80040 CEDEX 1,Arrondissement d'Amiens,Picardie,,Somme,France
80041 CEDEX 1,Arrondissement d'Amiens,Picardie,,Somme,France
80042 CEDEX 1,Arrondissement d'Amiens,Picardie,,Somme,France
80043 CEDEX 1,Arrondissement d'Amiens,Picardie,,Somme,France
80044 CEDEX 1,Arrondissement d'Amiens,Picardie,,Somme,France
80046 CEDEX 2,Arrondissement d'Amiens,Picardie,,Somme,France
80047 CEDEX 1,Arrondissement d'Amiens,Picardie,,Somme,France
80048 CEDEX 1,Arrondissement d'Amiens,Picardie,,Somme,France
80049 CEDEX 1,Arrondissement d'Amiens,Picardie,,Somme,France
80050 CEDEX 1,Arrondissement d'Amiens,Picardie,,Somme,France
80051 CEDEX 1,Arrondissement d'Amiens,Picardie,,Somme,France
80054 CEDEX 1,Arrondissement d'Amiens,Picardie,,Somme,France
80055 CEDEX 1,Arrondissement d'Amiens,Picardie,,Somme,France
80056 CEDEX 1,Arrondissement d'Amiens,Picardie,,Somme,France
80057 CEDEX 1,Arrondissement d'Amiens,Picardie,,Somme,France
80060 CEDEX 9,Arrondissement d'Amiens,Picardie,,Somme,France
80061 CEDEX 9,Arrondissement d'Amiens,Picardie,,Somme,France
80062 CEDEX 9,Arrondissement d'Amiens,Picardie,,Somme,France
80063 CEDEX 9,Arrondissement d'Amiens,Picardie,,Somme,France
80064 CEDEX 9,Arrondissement d'Amiens,Picardie,,Somme,France
80068 CEDEX 9,Arrondissement d'Amiens,Picardie,,Somme,France
80069 CEDEX 9,Arrondissement d'Amiens,Picardie,,Somme,France
80075 CEDEX 1,Arrondissement d'Amiens,Picardie,,Somme,France
80080,Arrondissement d'Amiens,Picardie,,Somme,France
80081 CEDEX 2,Arrondissement d'Amiens,Picardie,,Somme,France
80082 CEDEX 2,Arrondissement d'Amiens,Picardie,,Somme,France
80083 CEDEX 2,Arrondissement d'Amiens,Picardie,,Somme,France
80084 CEDEX 2,Arrondissement d'Amiens,Picardie,,Somme,France
80085 CEDEX 2,Arrondissement d'Amiens,Picardie,,Somme,France
80086 CEDEX 2,Arrondissement d'Amiens,Picardie,,Somme,France
80087 CEDEX 2,Arrondissement d'Amiens,Picardie,,Somme,France
80088 CEDEX 2,Arrondissement d'Amiens,Picardie,,Somme,France
80089 CEDEX 2,Arrondissement d'Amiens,Picardie,,Somme,France
80090,Arrondissement d'Amiens,Picardie,,Somme,France
80091 CEDEX 3,Arrondissement d'Amiens,Picardie,,Somme,France
80092 CEDEX 3,Arrondissement d'Amiens,Picardie,,Somme,France
80093 CEDEX 3,Arrondissement d'Amiens,Picardie,,Somme,France
80094 CEDEX 3,Arrondissement d'Amiens,Picardie,,Somme,France
80095 CEDEX 3,Arrondissement d'Amiens,Picardie,,Somme,France
80096 CEDEX 3,Arrondissement d'Amiens,Picardie,,Somme,France
80097 CEDEX 3,Arrondissement d'Amiens,Picardie,,Somme,France
80099 CEDEX 3,Arrondissement d'Amiens,Picardie,,Somme,France
80100,Arrondissement d'Abbeville,Picardie,,Somme,France
80101 CEDEX,Arrondissement d'Abbeville,Picardie,,Somme,France
80102 CEDEX,Arrondissement d'Abbeville,Picardie,,Somme,France
80103 CEDEX,Arrondissement d'Abbeville,Picardie,,Somme,France
80104 CEDEX,Arrondissement d'Abbeville,Picardie,,Somme,France
80105 CEDEX,Arrondissement d'Abbeville,Picardie,,Somme,France
80106 CEDEX,Arrondissement d'Abbeville,Picardie,,Somme,France
80107 CEDEX,Arrondissement d'Abbeville,Picardie,,Somme,France
80108 CEDEX,Arrondissement d'Abbeville,Picardie,,Somme,France
80109 CEDEX,Arrondissement d'Abbeville,Picardie,,Somme,France
80110,Arrondissement de Montdidier,Picardie,,Somme,France
80115,Arrondissement d'Amiens,Picardie,,Somme,France
80118,Arrondissement de Montdidier,Picardie,,Somme,France
80120,Arrondissement d'Abbeville,Picardie,,Somme,France
80122,Arrondissement de Péronne,Picardie,,Somme,France
80130,Arrondissement d'Abbeville,Picardie,,Somme,France
80131,Arrondissement de Montdidier,Picardie,,Somme,France
80132,Arrondissement d'Abbeville,Picardie,,Somme,France
80134,Arrondissement de Montdidier,Picardie,,Somme,France
80135,Arrondissement d'Abbeville,Picardie,,Somme,France
80136,Arrondissement d'Amiens,Picardie,,Somme,France
80140,Arrondissement d'Abbeville,Picardie,,Somme,France
80142 CEDEX,Arrondissement d'Abbeville,Picardie,,Somme,France
80143 CEDEX,Arrondissement d'Abbeville,Picardie,,Somme,France
80144 CEDEX,Arrondissement d'Abbeville,Picardie,,Somme,France
80145 CEDEX,Arrondissement d'Abbeville,Picardie,,Somme,France
80146 CEDEX,Arrondissement d'Abbeville,Picardie,,Somme,France
80150,Arrondissement d'Abbeville,Picardie,,Somme,France
80160,Arrondissement d'Amiens,Picardie,,Somme,France
80170,Arrondissement de Montdidier,Picardie,,Somme,France
80190,Arrondissement de Péronne,Picardie,,Somme,France
80200,Arrondissement de Péronne,Picardie,,Somme,France
80201 CEDEX,Arrondissement de Péronne,Picardie,,Somme,France
80202 CEDEX,Arrondissement de Péronne,Picardie,,Somme,France
80203 CEDEX,Arrondissement de Péronne,Picardie,,Somme,France
80204 CEDEX,Arrondissement de Péronne,Picardie,,Somme,France
80205 CEDEX,Arrondissement de Péronne,Picardie,,Somme,France
80206 CEDEX,Arrondissement de Péronne,Picardie,,Somme,France
80208 CEDEX,Arrondissement de Péronne,Picardie,,Somme,France
80209 CEDEX,Arrondissement de Péronne,Picardie,,Somme,France
80210,Arrondissement d'Abbeville,Picardie,,Somme,France
80220,Arrondissement d'Abbeville,Picardie,,Somme,France
80230,Arrondissement d'Abbeville,Picardie,,Somme,France
80240,Arrondissement de Péronne,Picardie,,Somme,France
80250,Arrondissement de Montdidier,Picardie,,Somme,France
80260,Arrondissement d'Amiens,Picardie,,Somme,France
80270,Arrondissement d'Amiens,Picardie,,Somme,France
80290,Arrondissement d'Amiens,Picardie,,Somme,France
80300,Arrondissement de Péronne,Picardie,,Somme,France
80301 CEDEX,Arrondissement de Péronne,Picardie,,Somme,France
80302 CEDEX,Arrondissement de Péronne,Picardie,,Somme,France
80303 CEDEX,Arrondissement de Péronne,Picardie,,Somme,France
80309 CEDEX,Arrondissement de Péronne,Picardie,,Somme,France
80310,Arrondissement d'Amiens,Picardie,,Somme,France
80320,Arrondissement de Péronne,Picardie,,Somme,France
80330,Arrondissement d'Amiens,Picardie,,Somme,France
80331 CEDEX,Arrondissement d'Amiens,Picardie,,Somme,France
80332 CEDEX,Arrondissement d'Amiens,Picardie,,Somme,France
80333 CEDEX,Arrondissement d'Amiens,Picardie,,Somme,France
80334 CEDEX,Arrondissement d'Amiens,Picardie,,Somme,France
80335 CEDEX,Arrondissement d'Amiens,Picardie,,Somme,France
80336 CEDEX,Arrondissement d'Amiens,Picardie,,Somme,France
80339 CEDEX,Arrondissement d'Amiens,Picardie,,Somme,France
80340,Arrondissement de Péronne,Picardie,,Somme,France
80350,Arrondissement d'Abbeville,Picardie,,Somme,France
80360,Arrondissement de Péronne,Picardie,,Somme,France
80370,Arrondissement d'Amiens,Picardie,,Somme,France
80390,Arrondissement d'Abbeville,Picardie,,Somme,France
80400,Arrondissement de Péronne,Picardie,,Somme,France
80410,Arrondissement d'Abbeville,Picardie,,Somme,France
80420,Arrondissement d'Amiens,Picardie,,Somme,France
80430,Arrondissement d'Abbeville,Picardie,,Somme,France
80440,Arrondissement d'Amiens,Picardie,,Somme,France
80450,Arrondissement d'Amiens,Picardie,,Somme,France
80460,Arrondissement d'Abbeville,Picardie,,Somme,France
80470,Arrondissement d'Amiens,Picardie,,Somme,France
80480,Arrondissement d'Amiens,Picardie,,Somme,France
80490,Arrondissement d'Abbeville,Picardie,,Somme,France
80500,Arrondissement de Montdidier,Picardie,,Somme,France
80510,Arrondissement d'Abbeville,Picardie,,Somme,France
80520,Arrondissement d'Abbeville,Picardie,,Somme,France
80531 CEDEX,Arrondissement d'Abbeville,Picardie,,Somme,France
80532 CEDEX,Arrondissement d'Abbeville,Picardie,,Somme,France
80533 CEDEX,Arrondissement d'Abbeville,Picardie,,Somme,France
80534 CEDEX,Arrondissement d'Abbeville,Picardie,,Somme,France
80535 CEDEX,Arrondissement d'Abbeville,Picardie,,Somme,France
80539 CEDEX,Arrondissement d'Abbeville,Picardie,,Somme,France
80540,Arrondissement d'Amiens,Picardie,,Somme,France
80550,Arrondissement d'Abbeville,Picardie,,Somme,France
80560,Arrondissement d'Amiens,Picardie,,Somme,France
80570,Arrondissement d'Abbeville,Picardie,,Somme,France
80580,Arrondissement d'Abbeville,Picardie,,Somme,France
80600,Arrondissement d'Amiens,Picardie,,Somme,France
80610,Arrondissement d'Amiens,Picardie,,Somme,France
80620,Arrondissement d'Abbeville,Picardie,,Somme,France
80630,Arrondissement d'Amiens,Picardie,,Somme,France
80640,Arrondissement d'Amiens,Picardie,,Somme,France
80650,Arrondissement d'Amiens,Picardie,,Somme,France
80670,Arrondissement d'Amiens,Picardie,,Somme,France
80680,Arrondissement d'Amiens,Picardie,,Somme,France
80690,Arrondissement d'Abbeville,Picardie,,Somme,France
80700,Arrondissement de Montdidier,Picardie,,Somme,France
80710,Arrondissement d'Amiens,Picardie,,Somme,France
80740,Arrondissement de Péronne,Picardie,,Somme,France
80750,Arrondissement d'Amiens,Picardie,,Somme,France
80770,Arrondissement d'Abbeville,Picardie,,Somme,France
80780,Arrondissement d'Amiens,Picardie,,Somme,France
80800,Arrondissement d'Amiens,Picardie,,Somme,France
80820,Arrondissement d'Abbeville,Picardie,,Somme,France
80830,Arrondissement d'Amiens,Picardie,,Somme,France
80850,Arrondissement d'Amiens,Picardie,,Somme,France
80860,Arrondissement d'Abbeville,Picardie,,Somme,France
80870,Arrondissement d'Abbeville,Picardie,,Somme,France
80880,Arrondissement d'Abbeville,Picardie,,Somme,France
80890,Arrondissement d'Amiens,Picardie,,Somme,France
80891 CEDEX 3,Arrondissement d'Amiens,Picardie,,Somme,France
80910,Arrondissement de Montdidier,Picardie,,Somme,France
80919 CEDEX 9,Arrondissement d'Amiens,Picardie,,Somme,France
80960,Arrondissement d'Abbeville,Picardie,,Somme,France
80970,Arrondissement d'Abbeville,Picardie,,Somme,France
80980,Arrondissement de Péronne,Picardie,,Somme,France
16000,Arrondissement d'Angoulême,Poitou-Charentes,,Charente,France
16001 CEDEX,Arrondissement d'Angoulême,Poitou-Charentes,,Charente,France
16002 CEDEX,Arrondissement d'Angoulême,Poitou-Charentes,,Charente,France
16003 CEDEX,Arrondissement d'Angoulême,Poitou-Charentes,,Charente,France
16004 CEDEX,Arrondissement d'Angoulême,Poitou-Charentes,,Charente,France
16005 CEDEX,Arrondissement d'Angoulême,Poitou-Charentes,,Charente,France
16006 CEDEX,Arrondissement d'Angoulême,Poitou-Charentes,,Charente,France
16007 CEDEX,Arrondissement d'Angoulême,Poitou-Charentes,,Charente,France
16008 CEDEX,Arrondissement d'Angoulême,Poitou-Charentes,,Charente,France
16010 CEDEX,Arrondissement d'Angoulême,Poitou-Charentes,,Charente,France
16011 CEDEX,Arrondissement d'Angoulême,Poitou-Charentes,,Charente,France
16012 CEDEX,Arrondissement d'Angoulême,Poitou-Charentes,,Charente,France
16013 CEDEX,Arrondissement d'Angoulême,Poitou-Charentes,,Charente,France
16014 CEDEX,Arrondissement d'Angoulême,Poitou-Charentes,,Charente,France
16015 CEDEX,Arrondissement d'Angoulême,Poitou-Charentes,,Charente,France
16016 CEDEX,Arrondissement d'Angoulême,Poitou-Charentes,,Charente,France
16017 CEDEX,Arrondissement d'Angoulême,Poitou-Charentes,,Charente,France
16018 CEDEX,Arrondissement d'Angoulême,Poitou-Charentes,,Charente,France
16019 CEDEX,Arrondissement d'Angoulême,Poitou-Charentes,,Charente,France
16020 CEDEX,Arrondissement d'Angoulême,Poitou-Charentes,,Charente,France
16021 CEDEX,Arrondissement d'Angoulême,Poitou-Charentes,,Charente,France
16022 CEDEX,Arrondissement d'Angoulême,Poitou-Charentes,,Charente,France
16023 CEDEX,Arrondissement d'Angoulême,Poitou-Charentes,,Charente,France
16024 CEDEX,Arrondissement d'Angoulême,Poitou-Charentes,,Charente,France
16025 CEDEX,Arrondissement d'Angoulême,Poitou-Charentes,,Charente,France
16026 CEDEX,Arrondissement d'Angoulême,Poitou-Charentes,,Charente,France
16100,Arrondissement de Cognac,Poitou-Charentes,,Charente,France
16101 CEDEX,Arrondissement de Cognac,Poitou-Charentes,,Charente,France
16102 CEDEX,Arrondissement de Cognac,Poitou-Charentes,,Charente,France
16103 CEDEX,Arrondissement de Cognac,Poitou-Charentes,,Charente,France
16104 CEDEX,Arrondissement de Cognac,Poitou-Charentes,,Charente,France
16105 CEDEX,Arrondissement de Cognac,Poitou-Charentes,,Charente,France
16106 CEDEX,Arrondissement de Cognac,Poitou-Charentes,,Charente,France
16107 CEDEX,Arrondissement de Cognac,Poitou-Charentes,,Charente,France
16108 CEDEX,Arrondissement de Cognac,Poitou-Charentes,,Charente,France
16109 AIR,Arrondissement de Cognac,Poitou-Charentes,,Charente,France
16110,Arrondissement d'Angoulême,Poitou-Charentes,,Charente,France
16111 CEDEX,Arrondissement de Cognac,Poitou-Charentes,,Charente,France
16112 CEDEX,Arrondissement de Cognac,Poitou-Charentes,,Charente,France
16113 CEDEX,Arrondissement de Cognac,Poitou-Charentes,,Charente,France
16120,Arrondissement de Cognac,Poitou-Charentes,,Charente,France
16121 CEDEX,Arrondissement de Cognac,Poitou-Charentes,,Charente,France
16130,Arrondissement de Cognac,Poitou-Charentes,,Charente,France
16140,Arrondissement de Confolens,Poitou-Charentes,,Charente,France
16150,Arrondissement de Confolens,Poitou-Charentes,,Charente,France
16160,Arrondissement d'Angoulême,Poitou-Charentes,,Charente,France
16170,Arrondissement de Cognac,Poitou-Charentes,,Charente,France
16190,Arrondissement d'Angoulême,Poitou-Charentes,,Charente,France
16200,Arrondissement de Cognac,Poitou-Charentes,,Charente,France
16210,Arrondissement d'Angoulême,Poitou-Charentes,,Charente,France
16220,Arrondissement d'Angoulême,Poitou-Charentes,,Charente,France
16230,Arrondissement de Confolens,Poitou-Charentes,,Charente,France
16240,Arrondissement de Confolens,Poitou-Charentes,,Charente,France
16250,Arrondissement d'Angoulême,Poitou-Charentes,,Charente,France
16260,Arrondissement de Confolens,Poitou-Charentes,,Charente,France
16270,Arrondissement de Confolens,Poitou-Charentes,,Charente,France
16290,Arrondissement d'Angoulême,Poitou-Charentes,,Charente,France
16300,Arrondissement de Cognac,Poitou-Charentes,,Charente,France
16310,Arrondissement de Confolens,Poitou-Charentes,,Charente,France
16320,Arrondissement d'Angoulême,Poitou-Charentes,,Charente,France
16330,Arrondissement d'Angoulême,Poitou-Charentes,,Charente,France
16340,Arrondissement d'Angoulême,Poitou-Charentes,,Charente,France
16350,Arrondissement de Confolens,Poitou-Charentes,,Charente,France
16360,Arrondissement de Cognac,Poitou-Charentes,,Charente,France
16370,Arrondissement de Cognac,Poitou-Charentes,,Charente,France
16380,Arrondissement d'Angoulême,Poitou-Charentes,,Charente,France
16390,Arrondissement d'Angoulême,Poitou-Charentes,,Charente,France
16400,Arrondissement d'Angoulême,Poitou-Charentes,,Charente,France
16410,Arrondissement d'Angoulême,Poitou-Charentes,,Charente,France
16420,Arrondissement de Confolens,Poitou-Charentes,,Charente,France
16430,Arrondissement d'Angoulême,Poitou-Charentes,,Charente,France
16440,Arrondissement d'Angoulême,Poitou-Charentes,,Charente,France
16450,Arrondissement de Confolens,Poitou-Charentes,,Charente,France
16460,Arrondissement de Confolens,Poitou-Charentes,,Charente,France
16470,Arrondissement d'Angoulême,Poitou-Charentes,,Charente,France
16480,Arrondissement de Cognac,Poitou-Charentes,,Charente,France
16490,Arrondissement de Confolens,Poitou-Charentes,,Charente,France
16500,Arrondissement de Confolens,Poitou-Charentes,,Charente,France
16510,Arrondissement de Confolens,Poitou-Charentes,,Charente,France
16560,Arrondissement d'Angoulême,Poitou-Charentes,,Charente,France
16570,Arrondissement d'Angoulême,Poitou-Charentes,,Charente,France
16590,Arrondissement d'Angoulême,Poitou-Charentes,,Charente,France
16600,Arrondissement d'Angoulême,Poitou-Charentes,,Charente,France
16620,Arrondissement d'Angoulême,Poitou-Charentes,,Charente,France
16700,Arrondissement de Confolens,Poitou-Charentes,,Charente,France
16710,Arrondissement d'Angoulême,Poitou-Charentes,,Charente,France
16720,Arrondissement de Cognac,Poitou-Charentes,,Charente,France
16730,Arrondissement d'Angoulême,Poitou-Charentes,,Charente,France
16800,Arrondissement d'Angoulême,Poitou-Charentes,,Charente,France
16901 CEDEX 9,Arrondissement d'Angoulême,Poitou-Charentes,,Charente,France
16902 CEDEX 9,Arrondissement d'Angoulême,Poitou-Charentes,,Charente,France
16903 CEDEX 9,Arrondissement d'Angoulême,Poitou-Charentes,,Charente,France
16904 CEDEX 9,Arrondissement d'Angoulême,Poitou-Charentes,,Charente,France
16905 CEDEX 9,Arrondissement d'Angoulême,Poitou-Charentes,,Charente,France
16906 CEDEX 9,Arrondissement d'Angoulême,Poitou-Charentes,,Charente,France
16907 CEDEX 9,Arrondissement d'Angoulême,Poitou-Charentes,,Charente,France
16908 CEDEX 9,Arrondissement d'Angoulême,Poitou-Charentes,,Charente,France
16909 CEDEX 9,Arrondissement d'Angoulême,Poitou-Charentes,,Charente,France
16910 CEDEX 9,Arrondissement d'Angoulême,Poitou-Charentes,,Charente,France
16911 CEDEX 9,Arrondissement d'Angoulême,Poitou-Charentes,,Charente,France
16912 CEDEX 9,Arrondissement d'Angoulême,Poitou-Charentes,,Charente,France
16913 CEDEX 9,Arrondissement d'Angoulême,Poitou-Charentes,,Charente,France
16914 CEDEX 9,Arrondissement d'Angoulême,Poitou-Charentes,,Charente,France